IRIDIUM 39              
1 25042U 97069D   25353.91808639  .00000486  00000+0  12125-3 0  9997
2 25042  86.3922 131.5529 0019193  50.6992 309.5911 14.49514934475867
IRIDIUM 38              
1 25043U 97069E   25354.00434004  .00000346  00000+0  10732-3 0  9997
2 25043  86.3974 155.0528 0002062 147.3315 212.8011 14.38320306472663
IRIDIUM 42              
1 25077U 97077A   25353.96086748  .00000328  00000+0  10518-3 0  9997
2 25077  86.3980 161.4676 0001551 111.1740 248.9623 14.36537871467865
IRIDIUM 44              
1 25078U 97077B   25353.96926397  .00000291  00000+0  85299-4 0  9999
2 25078  86.3970 142.9045 0003635 113.5122 246.6460 14.40437359470441
IRIDIUM 45              
1 25104U 97082A   25353.92829005  .00025682  00000+0  72112-3 0  9999
2 25104  86.3539 317.1337 0097084 353.9964   6.0112 15.31704068480377
IRIDIUM 24              
1 25105U 97082B   25354.11735651  .00000335  00000+0  95435-4 0  9997
2 25105  86.3906   1.4213 0011460 172.4032 187.7344 14.42334145470016
IRIDIUM 51              
1 25262U 98018A   25353.94495191  .00075294  00000+0  76734-3 0  9999
2 25262  86.3729 322.5394 0046082 242.6017 117.0558 15.63471717475773
IRIDIUM 57              
1 25273U 98019B   25354.22781865  .00000267  00000+0  85227-4 0  9996
2 25273  86.3952  67.2493 0002173  98.4423 261.7020 14.36056462451485
